NORAD_CAT_ID,OBJECT_NAME,OBJECT_TYPE,EPOCH,MEAN_MOTION,ECCENTRICITY,INCLINATION,RA_OF_ASC_NODE,ARG_OF_PERICENTER,MEAN_ANOMALY,BSTAR,MEAN_MOTION_DOT,MEAN_MOTION_DDOT,TLE_LINE0,TLE_LINE1,TLE_LINE2,SEMIMAJOR_AXIS,PERIOD,APOGEE,PERIGEE,DECAYED
55765.0,STARLINK-5595,PAYLOAD,2024-05-09 09:12:53,14.98337862,0.0003022,69.999,112.1754,271.1315,88.9498,-5.5638e-06,-1.59e-06,0.0,0 STARLINK-5595,1 55765U 23028AA  24130.38395148 -.00000159  00000-0 -55638-5 0  9993,2 55765  69.9990 112.1754 0003022 271.1315  88.9498 14.98337862 66278,6950.169,96.106,574.134,569.933,0.0
55765.0,STARLINK-5595,PAYLOAD,2024-05-09 15:37:26,14.98330657,0.0003006,69.9992,111.5021,270.956,89.1255,-4.235e-05,-5.98e-06,0.0,0 STARLINK-5595,1 55765U 23028AA  24130.65099620 -.00000598  00000-0 -42350-4 0  9992,2 55765  69.9992 111.5021 0003006 270.9560  89.1255 14.98330657 66315,6950.191,96.107,574.145,569.967,0.0
55765.0,STARLINK-5595,PAYLOAD,2024-05-10 04:26:30,14.9832646,0.0002993,69.9991,110.1556,270.7331,89.3485,-1.0821e-05,-2.22e-06,0.0,0 STARLINK-5595,1 55765U 23028AA  24131.18507880 -.00000222  00000-0 -10821-4 0  9995,2 55765  69.9991 110.1556 0002993 270.7331  89.3485 14.98326460 66381,6950.204,96.107,574.149,569.989,0.0
55765.0,STARLINK-5595,PAYLOAD,2024-05-10 07:38:47,14.98324458,0.0002947,69.9992,109.8195,268.6192,91.4629,-1.3374e-05,-2.53e-06,0.0,0 STARLINK-5595,1 55765U 23028AA  24131.31860052 -.00000253  00000-0 -13374-4 0  9993,2 55765  69.9992 109.8195 0002947 268.6192  91.4629 14.98324458 66419,6950.21,96.107,574.123,570.027,0.0
55765.0,STARLINK-5595,PAYLOAD,2024-05-10 22:03:59,14.98332348,0.0002891,69.9994,108.3043,266.4989,93.5839,-1.5262e-05,-2.75e-06,0.0,0 STARLINK-5595,1 55765U 23028AA  24131.91943619 -.00000275  00000-0 -15262-4 0  9992,2 55765  69.9994 108.3043 0002891 266.4989  93.5839 14.98332348 66508,6950.186,96.107,574.06,570.041,0.0
55765.0,STARLINK-5595,PAYLOAD,2024-05-11 02:52:22,14.98336198,0.0002919,69.9994,107.7992,264.3724,95.7102,7.9477e-05,8.56e-06,0.0,0 STARLINK-5595,1 55765U 23028AA  24132.11971051  .00000856  00000-0  79477-4 0  9997,2 55765  69.9994 107.7992 0002919 264.3724  95.7102 14.98336198 66525,6950.174,96.107,574.067,570.01,0.0
55765.0,STARLINK-5595,PAYLOAD,2024-05-11 07:40:45,14.98353031,0.0002793,69.9995,107.2948,264.1477,95.9363,0.00021276,2.448e-05,0.0,0 STARLINK-5595,1 55765U 23028AA  24132.31997382  .00002448  00000-0  21276-3 0  9996,2 55765  69.9995 107.2948 0002793 264.1477  95.9363 14.98353031 66554,6950.122,96.106,573.928,570.046,0.0
55765.0,STARLINK-5595,PAYLOAD,2024-05-11 22:05:57,14.98353617,0.000248,70.0011,105.7821,256.5979,103.4904,0.00023842,2.755e-05,0.0,0 STARLINK-5595,1 55765U 23028AA  24132.92080489  .00002755  00000-0  23842-3 0  9996,2 55765  70.0011 105.7821 0002480 256.5979 103.4904 14.98353617 66651,6950.12,96.105,573.708,570.261,0.0
55765.0,STARLINK-5595,PAYLOAD,2024-05-12 04:30:35,14.98277507,0.0002905,69.9989,105.1055,264.4636,95.6191,-0.00056612,-6.832e-05,0.0,0 STARLINK-5595,1 55765U 23028AA  24133.18791400 -.00006832  00000-0 -56612-3 0  9990,2 55765  69.9989 105.1055 0002905 264.4636  95.6191 14.98277507 66681,6950.355,96.11,574.239,570.201,0.0
55765.0,STARLINK-5595,PAYLOAD,2024-05-12 07:42:52,14.98276118,0.0002962,69.999,104.7687,265.8687,94.2133,-0.00056635,-6.835e-05,0.0,0 STARLINK-5595,1 55765U 23028AA  24133.32143936 -.00006835  00000-0 -56635-3 0  9999,2 55765  69.9990 104.7687 0002962 265.8687  94.2133 14.98276118 66715,6950.36,96.11,574.283,570.166,0.0
55765.0,STARLINK-5595,PAYLOAD,2024-05-12 15:43:32,14.9828195,0.0003018,69.9987,103.9266,261.6395,98.4422,-0.00051187,-6.188e-05,0.0,0 STARLINK-5595,1 55765U 23028AA  24133.65524212 -.00006188  00000-0 -51187-3 0  9993,2 55765  69.9987 103.9266 0003018 261.6395  98.4422 14.98281950 66759,6950.341,96.11,574.304,570.109,0.0
55765.0,STARLINK-5595,PAYLOAD,2024-05-12 22:08:05,14.9828648,0.0003161,69.9993,103.2555,263.5348,96.5451,-0.00053851,-6.505e-05,0.0,0 STARLINK-5595,1 55765U 23028AA  24133.92228639 -.00006505  00000-0 -53851-3 0  9990,2 55765  69.9993 103.2555 0003161 263.5348  96.5451 14.98286480 66808,6950.327,96.11,574.389,569.995,0.0
55765.0,STARLINK-5595,PAYLOAD,2024-05-13 04:32:34,14.98332877,0.0002667,70.0,102.5831,252.0794,108.0074,-0.00017038,-2.125e-05,0.0,0 STARLINK-5595,1 55765U 23028AA  24134.18929233 -.00002125  00000-0 -17038-3 0  9998,2 55765  70.0000 102.5831 0002667 252.0794 108.0074 14.98332877 66832,6950.184,96.107,573.903,570.195,0.0
55765.0,STARLINK-5595,PAYLOAD,2024-05-13 07:44:50,14.98335568,0.0002692,69.9999,102.2464,255.2111,104.875,-0.00012084,-1.535e-05,0.0,0 STARLINK-5595,1 55765U 23028AA  24134.32280931 -.00001535  00000-0 -12084-3 0  9999,2 55765  69.9999 102.2464 0002692 255.2111 104.8750 14.98335568 66869,6950.176,96.107,573.912,570.17,0.0
55765.0,STARLINK-5595,PAYLOAD,2024-05-13 15:45:30,14.9834013,0.0002662,70.0,101.4021,266.2102,93.8753,-6.9581e-05,-9.23e-06,0.0,0 STARLINK-5595,1 55765U 23028AA  24134.65660533 -.00000923  00000-0 -69581-4 0  9990,2 55765  70.0000 101.4021 0002662 266.2102  93.8753 14.98340130 66900,6950.162,96.106,573.877,570.176,0.0
55765.0,STARLINK-5595,PAYLOAD,2024-05-14 07:46:50,14.98342274,0.0002961,69.9992,99.7193,269.4117,90.6703,7.8545e-05,8.45e-06,0.0,0 STARLINK-5595,1 55765U 23028AA  24135.32419742  .00000845  00000-0  78545-4 0  9990,2 55765  69.9992  99.7193 0002961 269.4117  90.6703 14.98342274 67013,6950.155,96.106,574.078,569.962,0.0
55765.0,STARLINK-5595,PAYLOAD,2024-05-14 22:12:03,14.98329304,0.0002846,69.9991,98.2044,263.6347,96.4488,0.00048576,5.708e-05,0.0,0 STARLINK-5595,1 55765U 23028AA  24135.92504073  .00005708  00000-0  48576-3 0  9991,2 55765  69.9991  98.2044 0002846 263.6347  96.4488 14.98329304 67107,6950.195,96.107,574.038,570.082,0.0
55765.0,STARLINK-5595,PAYLOAD,2024-05-15 04:36:35,14.98314917,0.0002986,69.9992,97.5311,262.7619,97.3201,0.00082695,9.784e-05,0.0,0 STARLINK-5595,1 55765U 23028AA  24136.19207980  .00009784  00000-0  82695-3 0  9996,2 55765  69.9992  97.5311 0002986 262.7619  97.3201 14.98314917 67134,6950.24,96.108,574.18,570.029,0.0
55765.0,STARLINK-5595,PAYLOAD,2024-05-15 07:48:51,14.98325184,0.0002926,69.9993,97.1945,265.793,94.2894,0.00069653,8.227e-05,0.0,0 STARLINK-5595,1 55765U 23028AA  24136.32559682  .00008227  00000-0  69653-3 0  9990,2 55765  69.9993  97.1945 0002926 265.7930  94.2894 14.98325184 67162,6950.208,96.107,574.106,570.039,0.0
55765.0,STARLINK-5595,PAYLOAD,2024-05-15 22:14:04,14.98347577,0.0002173,70.0027,95.6806,255.1759,104.916,-7.8319e-05,-1.028e-05,0.0,0 STARLINK-5595,1 55765U 23028AA  24136.92643641 -.00001028  00000-0 -78319-4 0  9999,2 55765  70.0027  95.6806 0002173 255.1759 104.9160 14.98347577 67253,6950.139,96.106,573.514,570.493,0.0
55765.0,STARLINK-5595,PAYLOAD,2024-05-16 07:50:52,14.98347944,0.0002294,70.0011,94.6706,255.0687,105.0218,-0.00014542,-1.828e-05,0.0,0 STARLINK-5595,1 55765U 23028AA  24137.32699290 -.00001828  00000-0 -14542-3 0  9990,2 55765  70.0011  94.6706 0002294 255.0687 105.0218 14.98347944 67307,6950.137,96.106,573.597,570.408,0.0
55765.0,STARLINK-5595,PAYLOAD,2024-05-16 14:15:24,14.98346198,0.0002701,70.0001,93.9962,269.9335,90.1514,-5.0944e-05,-7.01e-06,0.0,0 STARLINK-5595,1 55765U 23028AA  24137.59402814 -.00000701  00000-0 -50944-4 0  9999,2 55765  70.0001  93.9962 0002701 269.9335  90.1514 14.98346198 67357,6950.143,96.106,573.885,570.131,0.0
55765.0,STARLINK-5595,PAYLOAD,2024-05-17 06:16:43,14.98351331,0.0002539,70.0006,92.3136,263.0898,96.9973,-3.8674e-05,-5.55e-06,0.0,0 STARLINK-5595,1 55765U 23028AA  24138.26161568 -.00000555  00000-0 -38674-4 0  9995,2 55765  70.0006  92.3136 0002539 263.0898  96.9973 14.98351331 67444,6950.127,96.106,573.757,570.227,0.0
55765.0,STARLINK-5595,PAYLOAD,2024-05-17 14:17:24,14.98338678,0.0002447,70.0008,91.4698,282.1654,77.923,-0.00020092,-2.49e-05,0.0,0 STARLINK-5595,1 55765U 23028AA  24138.59542594 -.00002490  00000-0 -20092-3 0  9997,2 55765  70.0008  91.4698 0002447 282.1654  77.9230 14.98338678 67500,6950.166,96.106,573.732,570.33,0.0
55765.0,STARLINK-5595,PAYLOAD,2024-05-17 22:18:06,14.98311448,0.0002861,70.0003,90.6299,275.094,84.9893,-0.00029068,-3.558e-05,0.0,0 STARLINK-5595,1 55765U 23028AA  24138.92924556 -.00003558  00000-0 -29068-3 0  9994,2 55765  70.0003  90.6299 0002861 275.0940  84.9893 14.98311448 67556,6950.25,96.108,574.104,570.127,0.0
55765.0,STARLINK-5595,PAYLOAD,2024-05-18 04:42:38,14.9831735,0.0002559,70.0004,89.9554,267.7448,92.3418,-0.00019375,-2.403e-05,0.0,0 STARLINK-5595,1 55765U 23028AA  24139.19628121 -.00002403  00000-0 -19375-3 0  9991,2 55765  70.0004  89.9554 0002559 267.7448  92.3418 14.98317350 67584,6950.232,96.108,573.876,570.318,0.0
55765.0,STARLINK-5595,PAYLOAD,2024-05-18 14:19:26,14.98327739,0.0002446,70.0013,88.946,273.5833,86.5047,-0.00011551,-1.471e-05,0.0,0 STARLINK-5595,1 55765U 23028AA  24139.59683484 -.00001471  00000-0 -11551-3 0  9990,2 55765  70.0013  88.9460 0002446 273.5833  86.5047 14.98327739 67650,6950.2,96.107,573.765,570.365,0.0
55765.0,STARLINK-5595,PAYLOAD,2024-05-18 20:43:58,14.98333128,0.0002878,70.0004,88.2747,276.2444,83.8387,-4.0261e-05,-5.73e-06,0.0,0 STARLINK-5595,1 55765U 23028AA  24139.86386802 -.00000573  00000-0 -40261-4 0  9997,2 55765  70.0004  88.2747 0002878 276.2444  83.8387 14.98333128 67687,6950.183,96.107,574.048,570.048,0.0
55765.0,STARLINK-5595,PAYLOAD,2024-05-18 22:20:06,14.98332189,0.0002976,70.0002,88.1061,274.9088,85.1731,-3.8846e-05,-5.56e-06,0.0,0 STARLINK-5595,1 55765U 23028AA  24139.93062828 -.00000556  00000-0 -38846-4 0  9991,2 55765  70.0002  88.1061 0002976 274.9088  85.1731 14.98332189 67708,6950.186,96.107,574.119,569.983,0.0
55765.0,STARLINK-5595,PAYLOAD,2024-05-19 04:44:37,14.98342511,0.000278,70.0002,87.4311,271.5496,88.5345,5.2084e-06,-3.1e-07,0.0,0 STARLINK-5595,1 55765U 23028AA  24140.19765987 -.00000031  00000-0  52084-5 0  9995,2 55765  70.0002  87.4311 0002780 271.5496  88.5345 14.98342511 67738,6950.154,96.106,573.951,570.087,0.0
